$$SOE
2460154.500000000, A.D. 2023-Jul-29 00:00:00.0000, 3.683644480165614E+08, 1.892535506059088E+08, -5.759502549432779E+07,
2460161.500000000, A.D. 2023-Aug-05 00:00:00.0000, 3.632457339233615E+08, 1.982909833264496E+08, -5.757778565707393E+07,
2460168.500000000, A.D. 2023-Aug-12 00:00:00.0000, 3.578855527778264E+08, 2.071966716050787E+08, -5.752217498950249E+07,
2460175.500000000, A.D. 2023-Aug-19 00:00:00.0000, 3.522869372875006E+08, 2.159643753752131E+08, -5.742814436278140E+07,
2460182.500000000, A.D. 2023-Aug-26 00:00:00.0000, 3.464530610421948E+08, 2.245878983906162E+08, -5.729566504289791E+07,
2460189.500000000, A.D. 2023-Sep-02 00:00:00.0000, 3.403872391041228E+08, 2.330610904884612E+08, -5.712472891619562E+07,
2460196.500000000, A.D. 2023-Sep-09 00:00:00.0000, 3.340929286383289E+08, 2.413778498364672E+08, -5.691534873423658E+07,
2460203.500000000, A.D. 2023-Sep-16 00:00:00.0000, 3.275737297492422E+08, 2.495321251111721E+08, -5.666755839834257E+07,
2460210.500000000, A.D. 2023-Sep-23 00:00:00.0000, 3.208333869376747E+08, 2.575179178979717E+08, -5.638141329885254E+07,
2460217.500000000, A.D. 2023-Sep-30 00:00:00.0000, 3.138757908344281E+08, 2.653292865042443E+08, -5.605699058020201E+07,
2460224.500000000, A.D. 2023-Oct-07 00:00:00.0000, 3.067049778477370E+08, 2.729603506437013E+08, -5.569438915856878E+07,
2460231.500000000, A.D. 2023-Oct-14 00:00:00.0000, 2.993251287577471E+08, 2.804052936846757E+08, -5.529372985737143E+07,
2460238.500000000, A.D. 2023-Oct-21 00:00:00.0000, 2.917405694819204E+08, 2.876583640691340E+08, -5.485515582556611E+07,
2460245.500000000, A.D. 2023-Oct-28 00:00:00.0000, 2.839557725788678E+08, 2.947138781659303E+08, -5.437883292239702E+07,
2460252.500000000, A.D. 2023-Nov-04 00:00:00.0000, 2.759753582337284E+08, 3.015662237937877E+08, -5.386495001634996E+07,
2460259.500000000, A.D. 2023-Nov-11 00:00:00.0000, 2.678040948979449E+08, 3.082098638194105E+08, -5.331371926347314E+07,
2460266.500000000, A.D. 2023-Nov-18 00:00:00.0000, 2.594468997976016E+08, 3.146393397697031E+08, -5.272537638999191E+07,
2460273.500000000, A.D. 2023-Nov-25 00:00:00.0000, 2.509088393758121E+08, 3.208492754829214E+08, -5.210018098315325E+07,
2460280.500000000, A.D. 2023-Dec-02 00:00:00.0000, 2.421951296882748E+08, 3.268343807901180E+08, -5.143841679276709E+07,
2460287.500000000, A.D. 2023-Dec-09 00:00:00.0000, 2.333111368200568E+08, 3.325894551715390E+08, -5.074039205457379E+07,
2460294.500000000, A.D. 2023-Dec-16 00:00:00.0000, 2.242623776017804E+08, 3.381093914052045E+08, -5.000643986037260E+07,
2460301.500000000, A.D. 2023-Dec-23 00:00:00.0000, 2.150545209657351E+08, 3.433891798998071E+08, -4.923691855072777E+07,
2460308.500000000, A.D. 2023-Dec-30 00:00:00.0000, 2.056933885935011E+08, 3.484239147622843E+08, -4.843221192111541E+07,
2460315.500000000, A.D. 2024-Jan-06 00:00:00.0000, 1.961849530698102E+08, 3.532087992392758E+08, -4.759272927012213E+07,
2460322.500000000, A.D. 2024-Jan-13 00:00:00.0000, 1.865353367044147E+08, 3.577391487315854E+08, -4.671890572788906E+07,
2460329.500000000, A.D. 2024-Jan-20 00:00:00.0000, 1.767508122381844E+08, 3.620103944692877E+08, -4.581120272500139E+07,
2460336.500000000, A.D. 2024-Jan-27 00:00:00.0000, 1.668378033933746E+08, 3.660180884982073E+08, -4.487010836103094E+07,
2460343.500000000, A.D. 2024-Feb-03 00:00:00.0000, 1.568028848265102E+08, 3.697579090288100E+08, -4.389613770934305E+07,
2460350.500000000, A.D. 2024-Feb-10 00:00:00.0000, 1.466527817483099E+08, 3.732256658565997E+08, -4.288983310597658E+07,
2460357.500000000, A.D. 2024-Feb-17 00:00:00.0000, 1.363943693362992E+08, 3.764173058616437E+08, -4.185176443320523E+07,
2460364.500000000, A.D. 2024-Feb-24 00:00:00.0000, 1.260346719626157E+08, 3.793289186009980E+08, -4.078252939827256E+07,
2460371.500000000, A.D. 2024-Mar-02 00:00:00.0000, 1.155808622524573E+08, 3.819567419597559E+08, -3.968275381090263E+07,
2460378.500000000, A.D. 2024-Mar-09 00:00:00.0000, 1.050402600975506E+08, 3.842971677954640E+08, -3.855309187557115E+07,
2460385.500000000, A.D. 2024-Mar-16 00:00:00.0000, 9.442033200509331E+07, 3.863467477706786E+08, -3.739422651678264E+07,
2460392.500000000, A.D. 2024-Mar-23 00:00:00.0000, 8.372869066457368E+07, 3.881022004803026E+08, -3.620686963558659E+07,
2460399.500000000, A.D. 2024-Mar-30 00:00:00.0000, 7.297309247827969E+07, 3.895604198401554E+08, -3.499176209180033E+07,
2460406.500000000, A.D. 2024-Apr-06 00:00:00.0000, 6.216143329366413E+07, 3.907184813584405E+08, -3.374967370706995E+07,
2460413.500000000, A.D. 2024-Apr-13 00:00:00.0000, 5.130174587010338E+07, 3.915736471229357E+08, -3.248140354389432E+07,
2460420.500000000, A.D. 2024-Apr-20 00:00:00.0000, 4.040219811454342E+07, 3.921233721755725E+08, -3.118778015298441E+07,
2460427.500000000, A.D. 2024-Apr-27 00:00:00.0000, 2.947109055399659E+07, 3.923653117017502E+08, -2.986966169284295E+07,
2460434.500000000, A.D. 2024-May-04 00:00:00.0000, 1.851685311588084E+07, 3.922973283192957E+08, -2.852793598402521E+07,
2460441.500000000, A.D. 2024-May-11 00:00:00.0000, 7.548041437773524E+06, 3.919174993536268E+08, -2.716352052531973E+07,
2460448.500000000, A.D. 2024-May-18 00:00:00.0000, -3.426667227871553E+06, 3.912241241082184E+08, -2.577736247464815E+07,
2460455.500000000, A.D. 2024-May-25 00:00:00.0000, -1.439847850540872E+07, 3.902157311095980E+08, -2.437043859451482E+07,
2460462.500000000, A.D. 2024-Jun-01 00:00:00.0000, -2.535848573969015E+07, 3.888910852544618E+08, -2.294375516908835E+07,
2460469.500000000, A.D. 2024-Jun-08 00:00:00.0000, -3.629767495985939E+07, 3.872491948192356E+08, -2.149834791416337E+07,
2460476.500000000, A.D. 2024-Jun-15 00:00:00.0000, -4.720692957716907E+07, 3.852893188584368E+08, -2.003528186874421E+07,
2460483.500000000, A.D. 2024-Jun-22 00:00:00.0000, -5.807703583372560E+07, 3.830109761463243E+08, -1.855565107668729E+07,
2460490.500000000, A.D. 2024-Jun-29 00:00:00.0000, -6.889869113272753E+07, 3.804139538136172E+08, -1.706057800865588E+07,
2460497.500000000, A.D. 2024-Jul-06 00:00:00.0000, -7.966251261922184E+07, 3.774983131729568E+08, -1.555121316378817E+07,
2460504.500000000, A.D. 2024-Jul-13 00:00:00.0000, -9.035904408185211E+07, 3.742643955312315E+08, -1.402873479562165E+07,
2460511.500000000, A.D. 2024-Jul-20 00:00:00.0000, -1.009787631743155E+08, 3.707128291170334E+08, -1.249434848433480E+07,
2460518.500000000, A.D. 2024-Jul-27 00:00:00.0000, -1.115120896206785E+08, 3.668445361385183E+08, -1.094928657113411E+07,
2460525.500000000, A.D. 2024-Aug-03 00:00:00.0000, -1.219493941376155E+08, 3.626607395683352E+08, -9.394807507844537E+06,
2460532.500000000, A.D. 2024-Aug-10 00:00:00.0000, -1.322810079115747E+08, 3.581629696199471E+08, -7.832195134632483E+06,
2460539.500000000, A.D. 2024-Aug-17 00:00:00.0000, -1.424972325856841E+08, 3.533530699029564E+08, -6.262757885780767E+06,
2460546.500000000, A.D. 2024-Aug-24 00:00:00.0000, -1.525883507292702E+08, 3.482332031989641E+08, -4.687827925371140E+06,
2460553.500000000, A.D. 2024-Aug-31 00:00:00.0000, -1.625446366733136E+08, 3.428058567588080E+08, -3.108760226200059E+06,
2460560.500000000, A.D. 2024-Sep-07 00:00:00.0000, -1.723563673432581E+08, 3.370738472086894E+08, -1.526931613080338E+06,
2460567.500000000, A.D. 2024-Sep-14 00:00:00.0000, -1.820138329992627E+08, 3.310403260218541E+08, 5.626030474179983E+04,
2460574.500000000, A.D. 2024-Sep-21 00:00:00.0000, -1.915073499058422E+08, 3.247087859312413E+08, 1.639398532989308E+06,
2460581.500000000, A.D. 2024-Sep-28 00:00:00.0000, -2.008272754039343E+08, 3.180830650168957E+08, 3.221048205498978E+06,
2460588.500000000, A.D. 2024-Oct-05 00:00:00.0000, -2.099640216976446E+08, 3.111673484227902E+08, 4.799757876103967E+06,
2460595.500000000, A.D. 2024-Oct-12 00:00:00.0000, -2.189080687026975E+08, 3.039661706405419E+08, 6.374060866377547E+06,
2460602.500000000, A.D. 2024-Oct-19 00:00:00.0000, -2.276499776880062E+08, 2.964844180527989E+08, 7.942476807308629E+06,
2460609.500000000, A.D. 2024-Oct-26 00:00:00.0000, -2.361804057159774E+08, 2.887273308950973E+08, 9.503513312028423E+06,
2460616.500000000, A.D. 2024-Nov-02 00:00:00.0000, -2.444901205947246E+08, 2.807005044467431E+08, 1.105566774318480E+07,
2460623.500000000, A.D. 2024-Nov-09 00:00:00.0000, -2.525700162132204E+08, 2.724098894318084E+08, 1.259742906655921E+07,
2460630.500000000, A.D. 2024-Nov-16 00:00:00.0000, -2.604111281974928E+08, 2.638617915925927E+08, 1.412727978677459E+07,
2460637.500000000, A.D. 2024-Nov-23 00:00:00.0000, -2.680046498011274E+08, 2.550628703494477E+08, 1.564369795436154E+07,
2460644.500000000, A.D. 2024-Nov-30 00:00:00.0000, -2.753419477781104E+08, 2.460201364699151E+08, 1.714515921867611E+07,
2460651.500000000, A.D. 2024-Dec-07 00:00:00.0000, -2.824145777712339E+08, 2.367409491352649E+08, 1.863013891906966E+07,
2460658.500000000, A.D. 2024-Dec-14 00:00:00.0000, -2.892142998550990E+08, 2.272330135983836E+08, 2.009711437337849E+07,
2460665.500000000, A.D. 2024-Dec-21 00:00:00.0000, -2.957330965017274E+08, 2.175043781678638E+08, 2.154456747030033E+07,
2460672.500000000, A.D. 2024-Dec-28 00:00:00.0000, -3.019631909384083E+08, 2.075634275318053E+08, 2.297098713708688E+07,
2460679.500000000, A.D. 2025-Jan-04 00:00:00.0000, -3.078970632346764E+08, 1.974188747750683E+08, 2.437487163275474E+07,
2460686.500000000, A.D. 2025-Jan-11 00:00:00.0000, -3.135274658792328E+08, 1.870797537306185E+08, 2.575473096300598E+07,
2460693.500000000, A.D. 2025-Jan-18 00:00:00.0000, -3.188474397036990E+08, 1.765554107383079E+08, 2.710908941896796E+07,
2460700.500000000, A.D. 2025-Jan-25 00:00:00.0000, -3.238503298433955E+08, 1.658554953334446E+08, 2.843648817136467E+07,
2460707.500000000, A.D. 2025-Feb-01 00:00:00.0000, -3.285298014769487E+08, 1.549899498349385E+08, 2.973548789251841E+07,
2460714.500000000, A.D. 2025-Feb-08 00:00:00.0000, -3.328798552173889E+08, 1.439689978579685E+08, 3.100467139420594E+07,
2460721.500000000, A.D. 2025-Feb-15 00:00:00.0000, -3.368948420566302E+08, 1.328031317428929E+08, 3.224264626840413E+07,
$$EOE